[{"OBJECT_NAME":"STARLINK-33830","OBJECT_ID":"2025-076U","EPOCH":"2026-03-24T11:42:31.669056","MEAN_MOTION":15.27582693,"ECCENTRICITY":0.0001298,"INCLINATION":43.0015,"RA_OF_ASC_NODE":238.1153,"ARG_OF_PERICENTER":259.8451,"MEAN_ANOMALY":100.2254,"EPHEMERIS_TYPE":0,"CLASSIFICATION_TYPE":"U","NORAD_CAT_ID":63587,"ELEMENT_SET_NO":999,"REV_AT_EPOCH":5409,"BSTAR":-9.9155e-6,"MEAN_MOTION_DOT":-5.35e-6,"MEAN_MOTION_DDOT":0},{"OBJECT_NAME":"STARLINK-33651","OBJECT_ID":"2025-076V","EPOCH":"2026-03-24T03:53:35.852928","MEAN_MOTION":15.27625654,"ECCENTRICITY":0.00053799,"INCLINATION":43.0083,"RA_OF_ASC_NODE":239.9751,"ARG_OF_PERICENTER":262.5971,"MEAN_ANOMALY":97.427,"EPHEMERIS_TYPE":0,"CLASSIFICATION_TYPE":"U","NORAD_CAT_ID":63588,"ELEMENT_SET_NO":999,"REV_AT_EPOCH":5404,"BSTAR":-0.0002288919,"MEAN_MOTION_DOT":-6.569e-5,"MEAN_MOTION_DDOT":0},{"OBJECT_NAME":"STARLINK-33788","OBJECT_ID":"2025-076W","EPOCH":"2026-03-23T18:52:43.474656","MEAN_MOTION":15.27609493,"ECCENTRICITY":0.00017486,"INCLINATION":43.001,"RA_OF_ASC_NODE":242.3172,"ARG_OF_PERICENTER":282.1314,"MEAN_ANOMALY":77.9341,"EPHEMERIS_TYPE":0,"CLASSIFICATION_TYPE":"U","NORAD_CAT_ID":63589,"ELEMENT_SET_NO":999,"REV_AT_EPOCH":5398,"BSTAR":0.00039984169,"MEAN_MOTION_DOT":0.00010767,"MEAN_MOTION_DDOT":0},{"OBJECT_NAME":"STARLINK-33805","OBJECT_ID":"2025-076X","EPOCH":"2026-03-24T10:49:05.670048","MEAN_MOTION":15.27568015,"ECCENTRICITY":0.0001441,"INCLINATION":42.9982,"RA_OF_ASC_NODE":238.6851,"ARG_OF_PERICENTER":258.004,"MEAN_ANOMALY":102.065,"EPHEMERIS_TYPE":0,"CLASSIFICATION_TYPE":"U","NORAD_CAT_ID":63590,"ELEMENT_SET_NO":999,"REV_AT_EPOCH":5408,"BSTAR":0.00047662,"MEAN_MOTION_DOT":0.00012872,"MEAN_MOTION_DDOT":0},{"OBJECT_NAME":"STARLINK-33702","OBJECT_ID":"2025-076Y","EPOCH":"2026-03-24T11:16:38.723232","MEAN_MOTION":15.27583694,"ECCENTRICITY":0.0001466,"INCLINATION":43.0026,"RA_OF_ASC_NODE":237.9749,"ARG_OF_PERICENTER":261.1929,"MEAN_ANOMALY":98.8756,"EPHEMERIS_TYPE":0,"CLASSIFICATION_TYPE":"U","NORAD_CAT_ID":63591,"ELEMENT_SET_NO":999,"REV_AT_EPOCH":5409,"BSTAR":0.00040012,"MEAN_MOTION_DOT":0.00010766,"MEAN_MOTION_DDOT":0},{"OBJECT_NAME":"STARLINK-33666","OBJECT_ID":"2025-076Z","EPOCH":"2026-03-24T12:01:02.517312","MEAN_MOTION":15.27585012,"ECCENTRICITY":0.0001703,"INCLINATION":43.002,"RA_OF_ASC_NODE":238.2114,"ARG_OF_PERICENTER":284.1884,"MEAN_ANOMALY":75.8778,"EPHEMERIS_TYPE":0,"CLASSIFICATION_TYPE":"U","NORAD_CAT_ID":63592,"ELEMENT_SET_NO":999,"REV_AT_EPOCH":5409,"BSTAR":0.00078594,"MEAN_MOTION_DOT":0.00021432,"MEAN_MOTION_DDOT":0},{"OBJECT_NAME":"STARLINK-33723","OBJECT_ID":"2025-076AA","EPOCH":"2026-03-24T11:25:53.909760","MEAN_MOTION":15.27602398,"ECCENTRICITY":7.92e-5,"INCLINATION":43.0009,"RA_OF_ASC_NODE":238.0229,"ARG_OF_PERICENTER":277.8682,"MEAN_ANOMALY":82.208,"EPHEMERIS_TYPE":0,"CLASSIFICATION_TYPE":"U","NORAD_CAT_ID":63593,"ELEMENT_SET_NO":999,"REV_AT_EPOCH":5409,"BSTAR":0.00065083,"MEAN_MOTION_DOT":0.00017702,"MEAN_MOTION_DDOT":0},{"OBJECT_NAME":"STARLINK-33791","OBJECT_ID":"2025-076AB","EPOCH":"2026-03-24T12:04:45.091488","MEAN_MOTION":15.27590502,"ECCENTRICITY":0.0001524,"INCLINATION":43.0001,"RA_OF_ASC_NODE":238.2285,"ARG_OF_PERICENTER":261.3433,"MEAN_ANOMALY":98.7246,"EPHEMERIS_TYPE":0,"CLASSIFICATION_TYPE":"U","NORAD_CAT_ID":63594,"ELEMENT_SET_NO":999,"REV_AT_EPOCH":5409,"BSTAR":0.00072185,"MEAN_MOTION_DOT":0.00019661,"MEAN_MOTION_DDOT":0},{"OBJECT_NAME":"STARLINK-33831","OBJECT_ID":"2025-076AC","EPOCH":"2026-03-24T03:40:38.565696","MEAN_MOTION":15.27594641,"ECCENTRICITY":0.00031381,"INCLINATION":43.0042,"RA_OF_ASC_NODE":239.843,"ARG_OF_PERICENTER":270.8859,"MEAN_ANOMALY":89.1633,"EPHEMERIS_TYPE":0,"CLASSIFICATION_TYPE":"U","NORAD_CAT_ID":63595,"ELEMENT_SET_NO":999,"REV_AT_EPOCH":5404,"BSTAR":0.0010578285,"MEAN_MOTION_DOT":0.00028977,"MEAN_MOTION_DDOT":0},{"OBJECT_NAME":"STARLINK-33879","OBJECT_ID":"2025-083A","EPOCH":"2026-03-23T22:46:46.129728","MEAN_MOTION":15.2759725,"ECCENTRICITY":0.00015433,"INCLINATION":43.0026,"RA_OF_ASC_NODE":285.0295,"ARG_OF_PERICENTER":293.1587,"MEAN_ANOMALY":66.9102,"EPHEMERIS_TYPE":0,"CLASSIFICATION_TYPE":"U","NORAD_CAT_ID":63634,"ELEMENT_SET_NO":999,"REV_AT_EPOCH":5224,"BSTAR":0.00097386739,"MEAN_MOTION_DOT":0.00026648,"MEAN_MOTION_DDOT":0},{"OBJECT_NAME":"STARLINK-33854","OBJECT_ID":"2025-083B","EPOCH":"2026-03-23T13:54:55.790496","MEAN_MOTION":15.27571061,"ECCENTRICITY":0.0001527,"INCLINATION":43.0008,"RA_OF_ASC_NODE":286.5607,"ARG_OF_PERICENTER":292.9547,"MEAN_ANOMALY":67.1143,"EPHEMERIS_TYPE":0,"CLASSIFICATION_TYPE":"U","NORAD_CAT_ID":63635,"ELEMENT_SET_NO":999,"REV_AT_EPOCH":5219,"BSTAR":0.00075225838,"MEAN_MOTION_DOT":0.0002049,"MEAN_MOTION_DDOT":0},{"OBJECT_NAME":"STARLINK-33864","OBJECT_ID":"2025-083C","EPOCH":"2026-03-24T12:59:43.128960","MEAN_MOTION":15.27617838,"ECCENTRICITY":5.87e-5,"INCLINATION":42.9977,"RA_OF_ASC_NODE":281.735,"ARG_OF_PERICENTER":292.7267,"MEAN_ANOMALY":67.3523,"EPHEMERIS_TYPE":0,"CLASSIFICATION_TYPE":"U","NORAD_CAT_ID":63636,"ELEMENT_SET_NO":999,"REV_AT_EPOCH":5236,"BSTAR":0.0011951,"MEAN_MOTION_DOT":0.00032808,"MEAN_MOTION_DDOT":0},{"OBJECT_NAME":"STARLINK-33832","OBJECT_ID":"2025-083D","EPOCH":"2026-03-24T13:16:09.158592","MEAN_MOTION":15.27601153,"ECCENTRICITY":0.0001519,"INCLINATION":43.0001,"RA_OF_ASC_NODE":280.9612,"ARG_OF_PERICENTER":283.1657,"MEAN_ANOMALY":76.9025,"EPHEMERIS_TYPE":0,"CLASSIFICATION_TYPE":"U","NORAD_CAT_ID":63637,"ELEMENT_SET_NO":999,"REV_AT_EPOCH":5234,"BSTAR":0.00051138,"MEAN_MOTION_DOT":0.00013846,"MEAN_MOTION_DDOT":0},{"OBJECT_NAME":"STARLINK-33856","OBJECT_ID":"2025-083E","EPOCH":"2026-03-24T13:30:57.672000","MEAN_MOTION":15.27603902,"ECCENTRICITY":0.0001502,"INCLINATION":43.0005,"RA_OF_ASC_NODE":281.0318,"ARG_OF_PERICENTER":288.4593,"MEAN_ANOMALY":71.6096,"EPHEMERIS_TYPE":0,"CLASSIFICATION_TYPE":"U","NORAD_CAT_ID":63638,"ELEMENT_SET_NO":999,"REV_AT_EPOCH":5234,"BSTAR":0.00064641,"MEAN_MOTION_DOT":0.00017581,"MEAN_MOTION_DDOT":0},{"OBJECT_NAME":"STARLINK-33876","OBJECT_ID":"2025-083F","EPOCH":"2026-03-24T06:02:23.239968","MEAN_MOTION":15.27587503,"ECCENTRICITY":0.0001623,"INCLINATION":42.9983,"RA_OF_ASC_NODE":282.9877,"ARG_OF_PERICENTER":257.7449,"MEAN_ANOMALY":102.3221,"EPHEMERIS_TYPE":0,"CLASSIFICATION_TYPE":"U","NORAD_CAT_ID":63639,"ELEMENT_SET_NO":999,"REV_AT_EPOCH":5229,"BSTAR":0.00058698,"MEAN_MOTION_DOT":0.00015929,"MEAN_MOTION_DDOT":0},{"OBJECT_NAME":"STARLINK-33859","OBJECT_ID":"2025-083G","EPOCH":"2026-03-24T12:57:52.585344","MEAN_MOTION":15.27596538,"ECCENTRICITY":0.0001965,"INCLINATION":43.0017,"RA_OF_ASC_NODE":281.73,"ARG_OF_PERICENTER":255.6415,"MEAN_ANOMALY":104.4218,"EPHEMERIS_TYPE":0,"CLASSIFICATION_TYPE":"U","NORAD_CAT_ID":63640,"ELEMENT_SET_NO":999,"REV_AT_EPOCH":5233,"BSTAR":0.00068015,"MEAN_MOTION_DOT":0.00018511,"MEAN_MOTION_DDOT":0}]
