STARLINK-33830          
1 63587U 25076U   26083.48786654 -.00000535  00000+0 -99155-5 0  9994
2 63587  43.0015 238.1153 0001298 259.8451 100.2254 15.27582693 54091
STARLINK-33651          
1 63588U 25076V   26083.16222052 -.00006569  00000+0 -22889-3 0  9998
2 63588  43.0083 239.9751 0005379 262.5971  97.4270 15.27625654 54047
STARLINK-33788          
1 63589U 25076W   26082.78661429  .00010767  00000+0  39984-3 0  9998
2 63589  43.0010 242.3172 0001748 282.1314  77.9341 15.27609493 53985
STARLINK-33805          
1 63590U 25076X   26083.45076007  .00012872  00000+0  47662-3 0  9998
2 63590  42.9982 238.6851 0001441 258.0040 102.0650 15.27568015 54082
STARLINK-33702          
1 63591U 25076Y   26083.46989263  .00010766  00000+0  40012-3 0  9999
2 63591  43.0026 237.9749 0001466 261.1929  98.8756 15.27583694 54090
STARLINK-33666          
1 63592U 25076Z   26083.50072358  .00021432  00000+0  78594-3 0  9991
2 63592  43.0020 238.2114 0001703 284.1884  75.8778 15.27585012 54099
STARLINK-33723          
1 63593U 25076AA  26083.47631840  .00017702  00000+0  65083-3 0  9999
2 63593  43.0009 238.0229 0000792 277.8682  82.2080 15.27602398 54099
STARLINK-33791          
1 63594U 25076AB  26083.50329967  .00019661  00000+0  72185-3 0  9995
2 63594  43.0001 238.2285 0001524 261.3433  98.7246 15.27590502 54091
STARLINK-33831          
1 63595U 25076AC  26083.15322414  .00028977  00000+0  10578-2 0  9994
2 63595  43.0042 239.8430 0003138 270.8859  89.1633 15.27594641 54043
STARLINK-33879          
1 63634U 25083A   26082.94914502  .00026648  00000+0  97387-3 0  9994
2 63634  43.0026 285.0295 0001543 293.1587  66.9102 15.27597250 52248
STARLINK-33854          
1 63635U 25083B   26082.57981239  .00020490  00000+0  75226-3 0  9992
2 63635  43.0008 286.5607 0001527 292.9547  67.1143 15.27571061 52191
STARLINK-33864          
1 63636U 25083C   26083.54147140  .00032808  00000+0  11951-2 0  9996
2 63636  42.9977 281.7350 0000587 292.7267  67.3523 15.27617838 52365
STARLINK-33832          
1 63637U 25083D   26083.55288378  .00013846  00000+0  51138-3 0  9990
2 63637  43.0001 280.9612 0001519 283.1657  76.9025 15.27601153 52345
STARLINK-33856          
1 63638U 25083E   26083.56316750  .00017581  00000+0  64641-3 0  9991
2 63638  43.0005 281.0318 0001502 288.4593  71.6096 15.27603902 52348
STARLINK-33876          
1 63639U 25083F   26083.25165787  .00015929  00000+0  58698-3 0  9999
2 63639  42.9983 282.9877 0001623 257.7449 102.3221 15.27587503 52299
STARLINK-33859          
1 63640U 25083G   26083.54019196  .00018511  00000+0  68015-3 0  9999
2 63640  43.0017 281.7300 0001965 255.6415 104.4218 15.27596538 52330
